{"type": "FeatureCollection", "features": [ {"type": "Feature", "properties": {"norad_id": 66938, "name": "STARLINK-36155", "group": "last-30-days", "lat": 28.880406619704623, "lon": 62.7376351963575, "alt_km": 291.51586422336186, "timestamp": "2025-12-15T04:01:19.182577+00:00", "meta": {"OBJECT_NAME": "STARLINK-36155", "OBJECT_ID": "2025-286P", "EPOCH": "2025-12-14T06:00:02.999808", "MEAN_MOTION": 15.94777748, "ECCENTRICITY": 8.863e-05, "INCLINATION": 53.1573, "RA_OF_ASC_NODE": 42.9942, "ARG_OF_PERICENTER": 84.8988, "MEAN_ANOMALY": 85.2331, "EPHEMERIS_TYPE": 0, "CLASSIFICATION_TYPE": "U", "NORAD_CAT_ID": 66938, "ELEMENT_SET_NO": 999, "REV_AT_EPOCH": 223, "BSTAR": -0.0033603427, "MEAN_MOTION_DOT": -0.01319229, "MEAN_MOTION_DDOT": 0.00052024237}, "tle": {"line1": "1 66938U 25286P   25348.25003472 -.01319229  52024-3 -33603-2 0  9992", "line2": "2 66938  53.1573  42.9942 0000886  84.8988  85.2331 15.94777748  2233"}}, "geometry": {"type": "Point", "coordinates": [62.7376351963575, 28.880406619704623]}}, {"type": "Feature", "properties": {"norad_id": 66939, "name": "STARLINK-36154", "group": "last-30-days", "lat": 31.65159945658404, "lon": 65.8301648418111, "alt_km": 290.59936185168135, "timestamp": "2025-12-15T04:01:19.182587+00:00", "meta": {"OBJECT_NAME": "STARLINK-36154", "OBJECT_ID": "2025-286Q", "EPOCH": "2025-12-14T06:00:02.999808", "MEAN_MOTION": 15.94937147, "ECCENTRICITY": 9.293e-05, "INCLINATION": 53.1572, "RA_OF_ASC_NODE": 42.9874, "ARG_OF_PERICENTER": 78.6253, "MEAN_ANOMALY": 94.8766, "EPHEMERIS_TYPE": 0, "CLASSIFICATION_TYPE": "U", "NORAD_CAT_ID": 66939, "ELEMENT_SET_NO": 999, "REV_AT_EPOCH": 223, "BSTAR": -0.0033763069, "MEAN_MOTION_DOT": -0.01336675, "MEAN_MOTION_DDOT": 0.00053370484}, "tle": {"line1": "1 66939U 25286Q   25348.25003472 -.01336675  53370-3 -33763-2 0  9999", "line2": "2 66939  53.1572  42.9874 0000929  78.6253  94.8766 15.94937147  2230"}}, "geometry": {"type": "Point", "coordinates": [65.8301648418111, 31.65159945658404]}}, {"type": "Feature", "properties": {"norad_id": 66940, "name": "STARLINK-36121", "group": "last-30-days", "lat": 32.85186155283268, "lon": 67.25506937555875, "alt_km": 290.2797642861369, "timestamp": "2025-12-15T04:01:19.182596+00:00", "meta": {"OBJECT_NAME": "STARLINK-36121", "OBJECT_ID": "2025-286R", "EPOCH": "2025-12-14T06:00:02.999808", "MEAN_MOTION": 15.95001926, "ECCENTRICITY": 8.58e-05, "INCLINATION": 53.1571, "RA_OF_ASC_NODE": 42.9841, "ARG_OF_PERICENTER": 81.6562, "MEAN_ANOMALY": 93.3372, "EPHEMERIS_TYPE": 0, "CLASSIFICATION_TYPE": "U", "NORAD_CAT_ID": 66940, "ELEMENT_SET_NO": 999, "REV_AT_EPOCH": 223, "BSTAR": -0.0033693769, "MEAN_MOTION_DOT": -0.01338551, "MEAN_MOTION_DDOT": 0.00053542062}, "tle": {"line1": "1 66940U 25286R   25348.25003472 -.01338551  53542-3 -33694-2 0  9990", "line2": "2 66940  53.1571  42.9841 0000858  81.6562  93.3372 15.95001926  2238"}}, "geometry": {"type": "Point", "coordinates": [67.25506937555875, 32.85186155283268]}}, {"type": "Feature", "properties": {"norad_id": 66941, "name": "STARLINK-36088", "group": "last-30-days", "lat": 30.374205387474618, "lon": 64.37246718024736, "alt_km": 290.9604644909732, "timestamp": "2025-12-15T04:01:19.182606+00:00", "meta": {"OBJECT_NAME": "STARLINK-36088", "OBJECT_ID": "2025-286S", "EPOCH": "2025-12-14T06:00:02.999808", "MEAN_MOTION": 15.94860474, "ECCENTRICITY": 9.808e-05, "INCLINATION": 53.1572, "RA_OF_ASC_NODE": 42.9903, "ARG_OF_PERICENTER": 78.8672, "MEAN_ANOMALY": 93.0717, "EPHEMERIS_TYPE": 0, "CLASSIFICATION_TYPE": "U", "NORAD_CAT_ID": 66941, "ELEMENT_SET_NO": 999, "REV_AT_EPOCH": 223, "BSTAR": -0.0033624117, "MEAN_MOTION_DOT": -0.01325844, "MEAN_MOTION_DDOT": 0.0005254425}, "tle": {"line1": "1 66941U 25286S   25348.25003472 -.01325844  52544-3 -33624-2 0  9996", "line2": "2 66941  53.1572  42.9903 0000980  78.8672  93.0717 15.94860474  2235"}}, "geometry": {"type": "Point", "coordinates": [64.37246718024736, 30.374205387474618]}}, {"type": "Feature", "properties": {"norad_id": 66942, "name": "STARLINK-36100", "group": "last-30-days", "lat": 34.10469756320241, "lon": 68.80672525241312, "alt_km": 289.91033067523676, "timestamp": "2025-12-15T04:01:19.182620+00:00", "meta": {"OBJECT_NAME": "STARLINK-36100", "OBJECT_ID": "2025-286T", "EPOCH": "2025-12-14T06:00:02.999808", "MEAN_MOTION": 15.95073518, "ECCENTRICITY": 7.847e-05, "INCLINATION": 53.157, "RA_OF_ASC_NODE": 42.9809, "ARG_OF_PERICENTER": 83.2432, "MEAN_ANOMALY": 93.3113, "EPHEMERIS_TYPE": 0, "CLASSIFICATION_TYPE": "U", "NORAD_CAT_ID": 66942, "ELEMENT_SET_NO": 999, "REV_AT_EPOCH": 216, "BSTAR": -0.0033541635, "MEAN_MOTION_DOT": -0.0133765, "MEAN_MOTION_DDOT": 0.00053515}, "tle": {"line1": "1 66942U 25286T   25348.25003472 -.01337650  53515-3 -33542-2 0  9993", "line2": "2 66942  53.1570  42.9809 0000784  83.2432  93.3113 15.95073518  2166"}}, "geometry": {"type": "Point", "coordinates": [68.80672525241312, 34.10469756320241]}}, {"type": "Feature", "properties": {"norad_id": 66943, "name": "STARLINK-36109", "group": "last-30-days", "lat": 35.54932238172717, "lon": 70.68711801022351, "alt_km": 289.42655278133316, "timestamp": "2025-12-15T04:01:19.182630+00:00", "meta": {"OBJECT_NAME": "STARLINK-36109", "OBJECT_ID": "2025-286U", "EPOCH": "2025-12-14T06:00:02.999808", "MEAN_MOTION": 15.95160848, "ECCENTRICITY": 8.903e-05, "INCLINATION": 53.1569, "RA_OF_ASC_NODE": 42.9769, "ARG_OF_PERICENTER": 85.0658, "MEAN_ANOMALY": 93.3462, "EPHEMERIS_TYPE": 0, "CLASSIFICATION_TYPE": "U", "NORAD_CAT_ID": 66943, "ELEMENT_SET_NO": 999, "REV_AT_EPOCH": 216, "BSTAR": -0.0033665728, "MEAN_MOTION_DOT": -0.01348799, "MEAN_MOTION_DDOT": 0.00054379065}, "tle": {"line1": "1 66943U 25286U   25348.25003472 -.01348799  54379-3 -33666-2 0  9996", "line2": "2 66943  53.1569  42.9769 0000890  85.0658  93.3462 15.95160848  2168"}}, "geometry": {"type": "Point", "coordinates": [70.68711801022351, 35.54932238172717]}}, {"type": "Feature", "properties": {"norad_id": 66944, "name": "STARLINK-36112", "group": "last-30-days", "lat": 36.691544614134465, "lon": 72.25196986681881, "alt_km": 288.8943221945692, "timestamp": "2025-12-15T04:01:19.182640+00:00", "meta": {"OBJECT_NAME": "STARLINK-36112", "OBJECT_ID": "2025-286V", "EPOCH": "2025-12-14T06:00:02.999808", "MEAN_MOTION": 15.95230011, "ECCENTRICITY": 9.9e-05, "INCLINATION": 53.1569, "RA_OF_ASC_NODE": 42.9737, "ARG_OF_PERICENTER": 73.3728, "MEAN_ANOMALY": 106.5115, "EPHEMERIS_TYPE": 0, "CLASSIFICATION_TYPE": "U", "NORAD_CAT_ID": 66944, "ELEMENT_SET_NO": 999, "REV_AT_EPOCH": 223, "BSTAR": -0.0033528953, "MEAN_MOTION_DOT": -0.01348353, "MEAN_MOTION_DDOT": 0.00054384229}, "tle": {"line1": "1 66944U 25286V   25348.25003472 -.01348353  54384-3 -33529-2 0  9997", "line2": "2 66944  53.1569  42.9737 0000990  73.3728 106.5115 15.95230011  2233"}}, "geometry": {"type": "Point", "coordinates": [72.25196986681881, 36.691544614134465]}}, {"type": "Feature", "properties": {"norad_id": 66945, "name": "STARLINK-36110", "group": "last-30-days", "lat": 38.053886342145795, "lon": 74.22159692466735, "alt_km": 288.5044984353017, "timestamp": "2025-12-15T04:01:19.182650+00:00", "meta": {"OBJECT_NAME": "STARLINK-36110", "OBJECT_ID": "2025-286W", "EPOCH": "2025-12-14T06:00:02.999808", "MEAN_MOTION": 15.95317332, "ECCENTRICITY": 9.424e-05, "INCLINATION": 53.1568, "RA_OF_ASC_NODE": 42.9699, "ARG_OF_PERICENTER": 75.9427, "MEAN_ANOMALY": 105.7506, "EPHEMERIS_TYPE": 0, "CLASSIFICATION_TYPE": "U", "NORAD_CAT_ID": 66945, "ELEMENT_SET_NO": 999, "REV_AT_EPOCH": 223, "BSTAR": -0.0033577574, "MEAN_MOTION_DOT": -0.01356574, "MEAN_MOTION_DDOT": 0.00055039083}, "tle": {"line1": "1 66945U 25286W   25348.25003472 -.01356574  55039-3 -33578-2 0  9994", "line2": "2 66945  53.1568  42.9699 0000942  75.9427 105.7506 15.95317332  2238"}}, "geometry": {"type": "Point", "coordinates": [74.22159692466735, 38.053886342145795]}}, {"type": "Feature", "properties": {"norad_id": 66946, "name": "STARLINK-36115", "group": "last-30-days", "lat": 39.21609418191832, "lon": 76.00238708067963, "alt_km": 288.1328828159567, "timestamp": "2025-12-15T04:01:19.182660+00:00", "meta": {"OBJECT_NAME": "STARLINK-36115", "OBJECT_ID": "2025-286X", "EPOCH": "2025-12-14T06:00:02.999808", "MEAN_MOTION": 15.95388459, "ECCENTRICITY": 9.254e-05, "INCLINATION": 53.1568, "RA_OF_ASC_NODE": 42.9665, "ARG_OF_PERICENTER": 76.9836, "MEAN_ANOMALY": 106.2898, "EPHEMERIS_TYPE": 0, "CLASSIFICATION_TYPE": "U", "NORAD_CAT_ID": 66946, "ELEMENT_SET_NO": 999, "REV_AT_EPOCH": 223, "BSTAR": -0.0033477918, "MEAN_MOTION_DOT": -0.01357734, "MEAN_MOTION_DDOT": 0.00055164689}, "tle": {"line1": "1 66946U 25286X   25348.25003472 -.01357734  55165-3 -33478-2 0  9993", "line2": "2 66946  53.1568  42.9665 0000925  76.9836 106.2898 15.95388459  2236"}}, "geometry": {"type": "Point", "coordinates": [76.00238708067963, 39.21609418191832]}}, {"type": "Feature", "properties": {"norad_id": 66947, "name": "STARLINK-36089", "group": "last-30-days", "lat": 41.59982945326349, "lon": 80.0059763685918, "alt_km": 287.3315488726512, "timestamp": "2025-12-15T04:01:19.182670+00:00", "meta": {"OBJECT_NAME": "STARLINK-36089", "OBJECT_ID": "2025-286Y", "EPOCH": "2025-12-14T06:00:02.999808", "MEAN_MOTION": 15.95548656, "ECCENTRICITY": 9.566e-05, "INCLINATION": 53.1567, "RA_OF_ASC_NODE": 42.9597, "ARG_OF_PERICENTER": 78.6263, "MEAN_ANOMALY": 108.0175, "EPHEMERIS_TYPE": 0, "CLASSIFICATION_TYPE": "U", "NORAD_CAT_ID": 66947, "ELEMENT_SET_NO": 999, "REV_AT_EPOCH": 223, "BSTAR": -0.0033471588, "MEAN_MOTION_DOT": -0.01369144, "MEAN_MOTION_DDOT": 0.00056104536}, "tle": {"line1": "1 66947U 25286Y   25348.25003472 -.01369144  56105-3 -33472-2 0  9991", "line2": "2 66947  53.1567  42.9597 0000956  78.6263 108.0175 15.95548656  2232"}}, "geometry": {"type": "Point", "coordinates": [80.0059763685918, 41.59982945326349]}}]}